{
  "type": "FeatureCollection",
  "features": [
    {
      "type": "Feature",
      "properties": {
        "norad_id": 66575,
        "name": "STARLINK-35810",
        "group": "last-30-days",
        "lat": 24.739555227765212,
        "lon": -142.4516189364182,
        "alt_km": 394.6838723116416,
        "timestamp": "2025-12-21T22:41:40.163038+00:00",
        "meta_object_name": "STARLINK-35810",
        "meta_object_id": "2025-268U",
        "meta_epoch": "2025-12-21T14:00:01.999872",
        "meta_mean_motion": 15.56444168,
        "meta_eccentricity": 0.00013609,
        "meta_inclination": 43.001,
        "meta_ra_of_asc_node": 69.3212,
        "meta_arg_of_pericenter": 262.0038,
        "meta_mean_anomaly": 7.9214,
        "meta_ephemeris_type": 0,
        "meta_classification_type": "U",
        "meta_norad_cat_id": 66575,
        "meta_element_set_no": 999,
        "meta_rev_at_epoch": 608,
        "meta_bstar": -0.00098976318,
        "meta_mean_motion_dot": -0.00071613,
        "meta_mean_motion_ddot": 0,
        "tle_line1": "1 66575U 25268U   25355.58335648 -.00071613  00000+0 -98976-3 0  9995",
        "tle_line2": "2 66575  43.0010  69.3212 0001360 262.0038   7.9214 15.56444168  6084"
      },
      "geometry": {
        "type": "Point",
        "coordinates": [
          -142.4516189364182,
          24.739555227765212
        ]
      }
    },
    {
      "type": "Feature",
      "properties": {
        "norad_id": 66576,
        "name": "STARLINK-35814",
        "group": "last-30-days",
        "lat": 23.593232422125748,
        "lon": -140.77110192741094,
        "alt_km": 394.84582049854,
        "timestamp": "2025-12-21T22:41:40.163048+00:00",
        "meta_object_name": "STARLINK-35814",
        "meta_object_id": "2025-268V",
        "meta_epoch": "2025-12-21T14:00:01.999872",
        "meta_mean_motion": 15.5643833,
        "meta_eccentricity": 0.00013832,
        "meta_inclination": 43.001,
        "meta_ra_of_asc_node": 69.3153,
        "meta_arg_of_pericenter": 261.9308,
        "meta_mean_anomaly": 9.915,
        "meta_ephemeris_type": 0,
        "meta_classification_type": "U",
        "meta_norad_cat_id": 66576,
        "meta_element_set_no": 999,
        "meta_rev_at_epoch": 608,
        "meta_bstar": -0.00086169409,
        "meta_mean_motion_dot": -0.00062452,
        "meta_mean_motion_ddot": 0,
        "tle_line1": "1 66576U 25268V   25355.58335648 -.00062452  00000+0 -86169-3 0  9998",
        "tle_line2": "2 66576  43.0010  69.3153 0001383 261.9308   9.9150 15.56438330  6087"
      },
      "geometry": {
        "type": "Point",
        "coordinates": [
          -140.77110192741094,
          23.593232422125748
        ]
      }
    },
    {
      "type": "Feature",
      "properties": {
        "norad_id": 66577,
        "name": "STARLINK-35815",
        "group": "last-30-days",
        "lat": 22.435057600040633,
        "lon": -139.1274298662497,
        "alt_km": 395.06922324683546,
        "timestamp": "2025-12-21T22:41:40.163059+00:00",
        "meta_object_name": "STARLINK-35815",
        "meta_object_id": "2025-268W",
        "meta_epoch": "2025-12-21T14:00:01.999872",
        "meta_mean_motion": 15.56397027,
        "meta_eccentricity": 0.00013888,
        "meta_inclination": 43.0008,
        "meta_ra_of_asc_node": 69.3106,
        "meta_arg_of_pericenter": 266.6297,
        "meta_mean_anomaly": 7.1499,
        "meta_ephemeris_type": 0,
        "meta_classification_type": "U",
        "meta_norad_cat_id": 66577,
        "meta_element_set_no": 999,
        "meta_rev_at_epoch": 608,
        "meta_bstar": -8.3320362e-05,
        "meta_mean_motion_dot": -6.404e-05,
        "meta_mean_motion_ddot": 0,
        "tle_line1": "1 66577U 25268W   25355.58335648 -.00006404  00000+0 -83320-4 0  9991",
        "tle_line2": "2 66577  43.0008  69.3106 0001388 266.6297   7.1499 15.56397027  6080"
      },
      "geometry": {
        "type": "Point",
        "coordinates": [
          -139.1274298662497,
          22.435057600040633
        ]
      }
    },
    {
      "type": "Feature",
      "properties": {
        "norad_id": 66578,
        "name": "STARLINK-35743",
        "group": "last-30-days",
        "lat": 21.196729946646805,
        "lon": -137.42455582122025,
        "alt_km": 395.2357623081589,
        "timestamp": "2025-12-21T22:41:40.163069+00:00",
        "meta_object_name": "STARLINK-35743",
        "meta_object_id": "2025-268X",
        "meta_epoch": "2025-12-21T14:21:41.542272",
        "meta_mean_motion": 15.56441988,
        "meta_eccentricity": 0.00019138,
        "meta_inclination": 43.0014,
        "meta_ra_of_asc_node": 69.2168,
        "meta_arg_of_pericenter": 276.2528,
        "meta_mean_anomaly": 83.8116,
        "meta_ephemeris_type": 0,
        "meta_classification_type": "U",
        "meta_norad_cat_id": 66578,
        "meta_element_set_no": 999,
        "meta_rev_at_epoch": 600,
        "meta_bstar": 0.0014656253,
        "meta_mean_motion_dot": 0.00107528,
        "meta_mean_motion_ddot": 0,
        "tle_line1": "1 66578U 25268X   25355.59839748  .00107528  00000+0  14656-2 0  9994",
        "tle_line2": "2 66578  43.0014  69.2168 0001913 276.2528  83.8116 15.56441988  6008"
      },
      "geometry": {
        "type": "Point",
        "coordinates": [
          -137.42455582122025,
          21.196729946646805
        ]
      }
    },
    {
      "type": "Feature",
      "properties": {
        "norad_id": 66579,
        "name": "STARLINK-35868",
        "group": "last-30-days",
        "lat": 20.05326062053077,
        "lon": -135.89778661116898,
        "alt_km": 395.35701970900664,
        "timestamp": "2025-12-21T22:41:40.163080+00:00",
        "meta_object_name": "STARLINK-35868",
        "meta_object_id": "2025-268Y",
        "meta_epoch": "2025-12-21T14:00:01.999872",
        "meta_mean_motion": 15.56430167,
        "meta_eccentricity": 0.00014173,
        "meta_inclination": 43.001,
        "meta_ra_of_asc_node": 69.301,
        "meta_arg_of_pericenter": 263.5402,
        "meta_mean_anomaly": 14.0596,
        "meta_ephemeris_type": 0,
        "meta_classification_type": "U",
        "meta_norad_cat_id": 66579,
        "meta_element_set_no": 999,
        "meta_rev_at_epoch": 608,
        "meta_bstar": -0.00067306556,
        "meta_mean_motion_dot": -0.00048929,
        "meta_mean_motion_ddot": 0,
        "tle_line1": "1 66579U 25268Y   25355.58335648 -.00048929  00000+0 -67307-3 0  9997",
        "tle_line2": "2 66579  43.0010  69.3010 0001417 263.5402  14.0596 15.56430167  6084"
      },
      "geometry": {
        "type": "Point",
        "coordinates": [
          -135.89778661116898,
          20.05326062053077
        ]
      }
    },
    {
      "type": "Feature",
      "properties": {
        "norad_id": 66580,
        "name": "STARLINK-35872",
        "group": "last-30-days",
        "lat": 18.769079167275603,
        "lon": -134.22935991894644,
        "alt_km": 394.9017609924531,
        "timestamp": "2025-12-21T22:41:40.163090+00:00",
        "meta_object_name": "STARLINK-35872",
        "meta_object_id": "2025-268Z",
        "meta_epoch": "2025-12-21T14:20:42.188064",
        "meta_mean_motion": 15.56454069,
        "meta_eccentricity": 0.00027322,
        "meta_inclination": 43.004,
        "meta_ra_of_asc_node": 69.2089,
        "meta_arg_of_pericenter": 246.8898,
        "meta_mean_anomaly": 113.1677,
        "meta_ephemeris_type": 0,
        "meta_classification_type": "U",
        "meta_norad_cat_id": 66580,
        "meta_element_set_no": 999,
        "meta_rev_at_epoch": 600,
        "meta_bstar": 0.0020651809,
        "meta_mean_motion_dot": 0.00152609,
        "meta_mean_motion_ddot": 0,
        "tle_line1": "1 66580U 25268Z   25355.59771051  .00152609  00000+0  20652-2 0  9992",
        "tle_line2": "2 66580  43.0040  69.2089 0002732 246.8898 113.1677 15.56454069  6008"
      },
      "geometry": {
        "type": "Point",
        "coordinates": [
          -134.22935991894644,
          18.769079167275603
        ]
      }
    },
    {
      "type": "Feature",
      "properties": {
        "norad_id": 66581,
        "name": "STARLINK-35744",
        "group": "last-30-days",
        "lat": 17.621153422485687,
        "lon": -132.77543736698064,
        "alt_km": 395.8347692466159,
        "timestamp": "2025-12-21T22:41:40.163100+00:00",
        "meta_object_name": "STARLINK-35744",
        "meta_object_id": "2025-268AA",
        "meta_epoch": "2025-12-21T14:00:01.999872",
        "meta_mean_motion": 15.56396017,
        "meta_eccentricity": 0.00014198,
        "meta_inclination": 43.0009,
        "meta_ra_of_asc_node": 69.2909,
        "meta_arg_of_pericenter": 272.8182,
        "meta_mean_anomaly": 8.6381,
        "meta_ephemeris_type": 0,
        "meta_classification_type": "U",
        "meta_norad_cat_id": 66581,
        "meta_element_set_no": 999,
        "meta_rev_at_epoch": 604,
        "meta_bstar": -0.0001264808,
        "meta_mean_motion_dot": -9.527e-05,
        "meta_mean_motion_ddot": 0,
        "tle_line1": "1 66581U 25268AA  25355.58335648 -.00009527  00000+0 -12648-3 0  9999",
        "tle_line2": "2 66581  43.0009  69.2909 0001419 272.8182   8.6381 15.56396017  6043"
      },
      "geometry": {
        "type": "Point",
        "coordinates": [
          -132.77543736698064,
          17.621153422485687
        ]
      }
    }
  ]
}